{
 "type": "FeatureCollection",
 "name": "rio_poligono",
 "crs": {
  "type": "name",
  "properties": {
   "name": "urn:ogc:def:crs:EPSG::32718"
  }
 },
 "features": [
  {
   "type": "Feature",
   "properties": {
    "capa": "rio",
    "tipo": "HATCH",
    "area_m2": 124384.5,
    "area_ha": 12.438,
    "n_vertices": 672
   },
   "geometry": {
    "type": "Polygon",
    "coordinates": [
     [
      [
       709010.725,
       5411936.383
      ],
      [
       709004.978,
       5411946.452
      ],
      [
       709004.978,
       5411946.452
      ],
      [
       709001.252,
       5411958.08
      ],
      [
       709001.252,
       5411958.08
      ],
      [
       708996.129,
       5411975.987
      ],
      [
       708996.129,
       5411975.987
      ],
      [
       709012.697,
       5411962.983
      ],
      [
       709012.697,
       5411962.983
      ],
      [
       709030.781,
       5411956.492
      ],
      [
       709030.781,
       5411956.492
      ],
      [
       709044.528,
       5411951.176
      ],
      [
       709044.528,
       5411951.176
      ],
      [
       709074.83,
       5411950.283
      ],
      [
       709074.83,
       5411950.283
      ],
      [
       709089.608,
       5411951.824
      ],
      [
       709089.608,
       5411951.824
      ],
      [
       709102.427,
       5411952.018
      ],
      [
       709102.427,
       5411952.018
      ],
      [
       709123.561,
       5411954.632
      ],
      [
       709123.561,
       5411954.632
      ],
      [
       709134.734,
       5411956.947
      ],
      [
       709134.734,
       5411956.947
      ],
      [
       709145.398,
       5411956.947
      ],
      [
       709145.398,
       5411956.947
      ],
      [
       709168.405,
       5411955.623
      ],
      [
       709168.405,
       5411955.623
      ],
      [
       709183.298,
       5411955.527
      ],
      [
       709183.298,
       5411955.527
      ],
      [
       709187.671,
       5411955.435
      ],
      [
       709187.671,
       5411955.435
      ],
      [
       709193.866,
       5411958.398
      ],
      [
       709193.866,
       5411958.398
      ],
      [
       709194.561,
       5411957.988
      ],
      [
       709194.561,
       5411957.988
      ],
      [
       709200.678,
       5411965.387
      ],
      [
       709200.678,
       5411965.387
      ],
      [
       709203.099,
       5411977.201
      ],
      [
       709203.099,
       5411977.201
      ],
      [
       709205.577,
       5411984.018
      ],
      [
       709205.577,
       5411984.018
      ],
      [
       709211.328,
       5411990.28
      ],
      [
       709211.328,
       5411990.28
      ],
      [
       709223.706,
       5411994.779
      ],
      [
       709223.706,
       5411994.779
      ],
      [
       709231.068,
       5411997.27
      ],
      [
       709231.068,
       5411997.27
      ],
      [
       709241.213,
       5411994.805
      ],
      [
       709241.213,
       5411994.805
      ],
      [
       709265.579,
       5411997.084
      ],
      [
       709265.579,
       5411997.084
      ],
      [
       709286.389,
       5412000.376
      ],
      [
       709286.389,
       5412000.376
      ],
      [
       709297.897,
       5412001.908
      ],
      [
       709297.897,
       5412001.908
      ],
      [
       709315.208,
       5411997.244
      ],
      [
       709315.208,
       5411997.244
      ],
      [
       709326.725,
       5411992.026
      ],
      [
       709326.725,
       5411992.026
      ],
      [
       709345.092,
       5411985.929
      ],
      [
       709345.092,
       5411985.929
      ],
      [
       709355.273,
       5411979.447
      ],
      [
       709355.273,
       5411979.447
      ],
      [
       709376.459,
       5411975.367
      ],
      [
       709376.459,
       5411975.367
      ],
      [
       709391.723,
       5411975.299
      ],
      [
       709391.723,
       5411975.299
      ],
      [
       709413.078,
       5411978.607
      ],
      [
       709413.078,
       5411978.607
      ],
      [
       709438.83,
       5411980.92
      ],
      [
       709438.83,
       5411980.92
      ],
      [
       709461.627,
       5411986.211
      ],
      [
       709461.627,
       5411986.211
      ],
      [
       709475.596,
       5411989.009
      ],
      [
       709475.596,
       5411989.009
      ],
      [
       709492.861,
       5411992.737
      ],
      [
       709492.861,
       5411992.737
      ],
      [
       709503.452,
       5411993.791
      ],
      [
       709503.452,
       5411993.791
      ],
      [
       709515.241,
       5411993.791
      ],
      [
       709515.241,
       5411993.791
      ],
      [
       709532.626,
       5411987.711
      ],
      [
       709532.626,
       5411987.711
      ],
      [
       709547.374,
       5411983.51
      ],
      [
       709547.374,
       5411983.51
      ],
      [
       709564.71,
       5411977.946
      ],
      [
       709564.71,
       5411977.946
      ],
      [
       709575.631,
       5411973.623
      ],
      [
       709575.631,
       5411973.623
      ],
      [
       709587.68,
       5411967.036
      ],
      [
       709587.68,
       5411967.036
      ],
      [
       709601.87,
       5411958.598
      ],
      [
       709601.87,
       5411958.598
      ],
      [
       709607.559,
       5411954.31
      ],
      [
       709607.559,
       5411954.31
      ],
      [
       709621.492,
       5411940.027
      ],
      [
       709621.492,
       5411940.027
      ],
      [
       709647.903,
       5411909.139
      ],
      [
       709647.903,
       5411909.139
      ],
      [
       709660.402,
       5411897.756
      ],
      [
       709660.402,
       5411897.756
      ],
      [
       709669.813,
       5411887.806
      ],
      [
       709669.813,
       5411887.806
      ],
      [
       709676.487,
       5411876.149
      ],
      [
       709676.487,
       5411876.149
      ],
      [
       709682.2,
       5411869.042
      ],
      [
       709682.2,
       5411869.042
      ],
      [
       709705.752,
       5411878.048
      ],
      [
       709705.752,
       5411878.048
      ],
      [
       709736.0,
       5411893.044
      ],
      [
       709736.0,
       5411893.044
      ],
      [
       709750.645,
       5411899.414
      ],
      [
       709750.645,
       5411899.414
      ],
      [
       709758.05,
       5411906.331
      ],
      [
       709758.05,
       5411906.331
      ],
      [
       709764.846,
       5411916.269
      ],
      [
       709764.846,
       5411916.269
      ],
      [
       709770.128,
       5411926.566
      ],
      [
       709770.128,
       5411926.566
      ],
      [
       709778.254,
       5411949.247
      ],
      [
       709778.254,
       5411949.247
      ],
      [
       709785.663,
       5411970.64
      ],
      [
       709785.663,
       5411970.64
      ],
      [
       709786.505,
       5411979.163
      ],
      [
       709786.505,
       5411979.163
      ],
      [
       709785.102,
       5411992.954
      ],
      [
       709785.102,
       5411992.954
      ],
      [
       709785.102,
       5412008.741
      ],
      [
       709785.102,
       5412008.741
      ],
      [
       709787.55,
       5412022.887
      ],
      [
       709787.55,
       5412022.887
      ],
      [
       709795.827,
       5412039.055
      ],
      [
       709795.827,
       5412039.055
      ],
      [
       709803.3,
       5412045.655
      ],
      [
       709803.3,
       5412045.655
      ],
      [
       709812.9,
       5412054.284
      ],
      [
       709812.9,
       5412054.284
      ],
      [
       709814.493,
       5412059.034
      ],
      [
       709814.493,
       5412059.034
      ],
      [
       709815.901,
       5412060.777
      ],
      [
       709815.901,
       5412060.777
      ],
      [
       709822.132,
       5412063.752
      ],
      [
       709822.132,
       5412063.752
      ],
      [
       709825.306,
       5412072.009
      ],
      [
       709825.306,
       5412072.009
      ],
      [
       709847.555,
       5412106.602
      ],
      [
       709847.555,
       5412106.602
      ],
      [
       709866.901,
       5412128.06
      ],
      [
       709866.901,
       5412128.06
      ],
      [
       709875.046,
       5412136.049
      ],
      [
       709875.046,
       5412136.049
      ],
      [
       709882.93,
       5412155.319
      ],
      [
       709882.93,
       5412155.319
      ],
      [
       709888.965,
       5412168.347
      ],
      [
       709888.965,
       5412168.347
      ],
      [
       709893.199,
       5412182.506
      ],
      [
       709893.199,
       5412182.506
      ],
      [
       709907.244,
       5412209.917
      ],
      [
       709907.244,
       5412209.917
      ],
      [
       709938.473,
       5412236.965
      ],
      [
       709938.473,
       5412236.965
      ],
      [
       709971.597,
       5412250.128
      ],
      [
       709971.597,
       5412250.128
      ],
      [
       709991.706,
       5412252.944
      ],
      [
       709991.706,
       5412252.944
      ],
      [
       710005.099,
       5412261.098
      ],
      [
       710005.099,
       5412261.098
      ],
      [
       710014.564,
       5412263.334
      ],
      [
       710014.564,
       5412263.334
      ],
      [
       710040.817,
       5412267.645
      ],
      [
       710040.817,
       5412267.645
      ],
      [
       710057.914,
       5412266.41
      ],
      [
       710057.914,
       5412266.41
      ],
      [
       710076.559,
       5412261.927
      ],
      [
       710076.559,
       5412261.927
      ],
      [
       710102.897,
       5412255.302
      ],
      [
       710102.897,
       5412255.302
      ],
      [
       710112.793,
       5412247.309
      ],
      [
       710112.793,
       5412247.309
      ],
      [
       710119.452,
       5412240.717
      ],
      [
       710119.452,
       5412240.717
      ],
      [
       710131.281,
       5412231.777
      ],
      [
       710131.281,
       5412231.777
      ],
      [
       710145.368,
       5412209.625
      ],
      [
       710145.368,
       5412209.625
      ],
      [
       710149.399,
       5412194.251
      ],
      [
       710149.399,
       5412194.251
      ],
      [
       710150.273,
       5412166.434
      ],
      [
       710150.273,
       5412166.434
      ],
      [
       710139.83,
       5412142.28
      ],
      [
       710139.83,
       5412142.28
      ],
      [
       710130.228,
       5412129.691
      ],
      [
       710130.228,
       5412129.691
      ],
      [
       710126.329,
       5412121.713
      ],
      [
       710126.329,
       5412121.713
      ],
      [
       710117.734,
       5412100.961
      ],
      [
       710117.734,
       5412100.961
      ],
      [
       710114.126,
       5412096.471
      ],
      [
       710114.126,
       5412096.471
      ],
      [
       710111.935,
       5412085.439
      ],
      [
       710111.935,
       5412085.439
      ],
      [
       710111.935,
       5412063.541
      ],
      [
       710111.935,
       5412063.541
      ],
      [
       710117.581,
       5412054.182
      ],
      [
       710117.581,
       5412054.182
      ],
      [
       710137.741,
       5412018.922
      ],
      [
       710137.741,
       5412018.922
      ],
      [
       710146.759,
       5412008.048
      ],
      [
       710146.759,
       5412008.048
      ],
      [
       710171.405,
       5411997.237
      ],
      [
       710171.405,
       5411997.237
      ],
      [
       710179.975,
       5411993.947
      ],
      [
       710179.975,
       5411993.947
      ],
      [
       710184.249,
       5412001.584
      ],
      [
       710184.249,
       5412001.584
      ],
      [
       710190.694,
       5412017.996
      ],
      [
       710190.694,
       5412017.996
      ],
      [
       710194.774,
       5412034.365
      ],
      [
       710194.774,
       5412034.365
      ],
      [
       710197.312,
       5412050.49
      ],
      [
       710197.312,
       5412050.49
      ],
      [
       710197.312,
       5412064.259
      ],
      [
       710197.312,
       5412064.259
      ],
      [
       710199.319,
       5412079.722
      ],
      [
       710199.319,
       5412079.722
      ],
      [
       710201.373,
       5412092.191
      ],
      [
       710201.373,
       5412092.191
      ],
      [
       710205.732,
       5412098.484
      ],
      [
       710205.732,
       5412098.484
      ],
      [
       710214.951,
       5412120.36
      ],
      [
       710214.951,
       5412120.36
      ],
      [
       710219.48,
       5412128.977
      ],
      [
       710219.48,
       5412128.977
      ],
      [
       710230.133,
       5412139.364
      ],
      [
       710230.133,
       5412139.364
      ],
      [
       710235.599,
       5412142.438
      ],
      [
       710235.599,
       5412142.438
      ],
      [
       710241.847,
       5412140.682
      ],
      [
       710241.847,
       5412140.682
      ],
      [
       710250.269,
       5412138.84
      ],
      [
       710250.269,
       5412138.84
      ],
      [
       710280.265,
       5412139.463
      ],
      [
       710280.265,
       5412139.463
      ],
      [
       710296.036,
       5412143.181
      ],
      [
       710296.036,
       5412143.181
      ],
      [
       710311.346,
       5412143.181
      ],
      [
       710311.346,
       5412143.181
      ],
      [
       710329.27,
       5412144.217
      ],
      [
       710329.27,
       5412144.217
      ],
      [
       710333.879,
       5412147.829
      ],
      [
       710333.879,
       5412147.829
      ],
      [
       710359.317,
       5412147.306
      ],
      [
       710359.317,
       5412147.306
      ],
      [
       710368.973,
       5412148.446
      ],
      [
       710368.973,
       5412148.446
      ],
      [
       710370.816,
       5412151.384
      ],
      [
       710370.816,
       5412151.384
      ],
      [
       710390.463,
       5412160.634
      ],
      [
       710390.463,
       5412160.634
      ],
      [
       710398.155,
       5412171.034
      ],
      [
       710398.155,
       5412171.034
      ],
      [
       710408.651,
       5412192.103
      ],
      [
       710408.651,
       5412192.103
      ],
      [
       710415.948,
       5412204.58
      ],
      [
       710415.948,
       5412204.58
      ],
      [
       710425.692,
       5412246.198
      ],
      [
       710425.692,
       5412246.198
      ],
      [
       710427.887,
       5412275.359
      ],
      [
       710427.887,
       5412275.359
      ],
      [
       710429.039,
       5412328.01
      ],
      [
       710429.039,
       5412328.01
      ],
      [
       710428.045,
       5412335.013
      ],
      [
       710428.045,
       5412335.013
      ],
      [
       710422.464,
       5412340.841
      ],
      [
       710422.464,
       5412340.841
      ],
      [
       710414.389,
       5412351.333
      ],
      [
       710414.389,
       5412351.333
      ],
      [
       710395.98,
       5412353.914
      ],
      [
       710395.98,
       5412353.914
      ],
      [
       710387.657,
       5412360.044
      ],
      [
       710387.657,
       5412360.044
      ],
      [
       710378.343,
       5412372.121
      ],
      [
       710378.343,
       5412372.121
      ],
      [
       710377.115,
       5412383.364
      ],
      [
       710377.115,
       5412383.364
      ],
      [
       710377.115,
       5412396.813
      ],
      [
       710377.115,
       5412396.813
      ],
      [
       710371.603,
       5412397.804
      ],
      [
       710371.603,
       5412397.804
      ],
      [
       710368.767,
       5412410.551
      ],
      [
       710368.767,
       5412410.551
      ],
      [
       710362.933,
       5412436.034
      ],
      [
       710362.933,
       5412436.034
      ],
      [
       710362.933,
       5412455.007
      ],
      [
       710362.933,
       5412455.007
      ],
      [
       710369.677,
       5412482.487
      ],
      [
       710369.677,
       5412482.487
      ],
      [
       710374.047,
       5412500.933
      ],
      [
       710374.047,
       5412500.933
      ],
      [
       710382.107,
       5412513.132
      ],
      [
       710382.107,
       5412513.132
      ],
      [
       710396.476,
       5412526.766
      ],
      [
       710396.476,
       5412526.766
      ],
      [
       710413.789,
       5412540.099
      ],
      [
       710413.789,
       5412540.099
      ],
      [
       710438.615,
       5412552.3
      ],
      [
       710438.615,
       5412552.3
      ],
      [
       710472.357,
       5412570.37
      ],
      [
       710472.357,
       5412570.37
      ],
      [
       710507.51,
       5412590.611
      ],
      [
       710507.51,
       5412590.611
      ],
      [
       710519.697,
       5412579.458
      ],
      [
       710519.697,
       5412579.458
      ],
      [
       710499.916,
       5412572.626
      ],
      [
       710499.916,
       5412572.626
      ],
      [
       710480.978,
       5412561.984
      ],
      [
       710480.978,
       5412561.984
      ],
      [
       710445.537,
       5412543.55
      ],
      [
       710445.537,
       5412543.55
      ],
      [
       710413.793,
       5412532.5
      ],
      [
       710413.793,
       5412532.5
      ],
      [
       710411.053,
       5412528.124
      ],
      [
       710411.053,
       5412528.124
      ],
      [
       710405.763,
       5412520.432
      ],
      [
       710405.763,
       5412520.432
      ],
      [
       710394.253,
       5412506.933
      ],
      [
       710394.253,
       5412506.933
      ],
      [
       710388.847,
       5412494.919
      ],
      [
       710388.847,
       5412494.919
      ],
      [
       710386.469,
       5412476.011
      ],
      [
       710386.469,
       5412476.011
      ],
      [
       710382.713,
       5412446.168
      ],
      [
       710382.713,
       5412446.168
      ],
      [
       710388.721,
       5412397.623
      ],
      [
       710388.721,
       5412397.623
      ],
      [
       710394.968,
       5412383.051
      ],
      [
       710394.968,
       5412383.051
      ],
      [
       710398.021,
       5412368.114
      ],
      [
       710398.021,
       5412368.114
      ],
      [
       710411.094,
       5412363.146
      ],
      [
       710411.094,
       5412363.146
      ],
      [
       710426.507,
       5412356.003
      ],
      [
       710426.507,
       5412356.003
      ],
      [
       710442.449,
       5412348.493
      ],
      [
       710442.449,
       5412348.493
      ],
      [
       710447.055,
       5412337.137
      ],
      [
       710447.055,
       5412337.137
      ],
      [
       710447.055,
       5412315.921
      ],
      [
       710447.055,
       5412315.921
      ],
      [
       710441.78,
       5412260.069
      ],
      [
       710441.78,
       5412260.069
      ],
      [
       710441.78,
       5412194.925
      ],
      [
       710441.78,
       5412194.925
      ],
      [
       710437.476,
       5412190.861
      ],
      [
       710437.476,
       5412190.861
      ],
      [
       710437.476,
       5412179.961
      ],
      [
       710437.476,
       5412179.961
      ],
      [
       710422.818,
       5412173.287
      ],
      [
       710422.818,
       5412173.287
      ],
      [
       710418.743,
       5412164.82
      ],
      [
       710418.743,
       5412164.82
      ],
      [
       710409.453,
       5412149.84
      ],
      [
       710409.453,
       5412149.84
      ],
      [
       710394.783,
       5412136.488
      ],
      [
       710394.783,
       5412136.488
      ],
      [
       710379.855,
       5412129.78
      ],
      [
       710379.855,
       5412129.78
      ],
      [
       710371.879,
       5412127.03
      ],
      [
       710371.879,
       5412127.03
      ],
      [
       710311.725,
       5412127.03
      ],
      [
       710311.725,
       5412127.03
      ],
      [
       710308.885,
       5412124.0
      ],
      [
       710308.885,
       5412124.0
      ],
      [
       710254.135,
       5412121.425
      ],
      [
       710254.135,
       5412121.425
      ],
      [
       710236.992,
       5412126.599
      ],
      [
       710236.992,
       5412126.599
      ],
      [
       710229.156,
       5412118.657
      ],
      [
       710229.156,
       5412118.657
      ],
      [
       710218.676,
       5412095.955
      ],
      [
       710218.676,
       5412095.955
      ],
      [
       710213.59,
       5412055.096
      ],
      [
       710213.59,
       5412055.096
      ],
      [
       710203.567,
       5412019.882
      ],
      [
       710203.567,
       5412019.882
      ],
      [
       710201.343,
       5412006.553
      ],
      [
       710201.343,
       5412006.553
      ],
      [
       710198.594,
       5411993.543
      ],
      [
       710198.594,
       5411993.543
      ],
      [
       710194.399,
       5411986.493
      ],
      [
       710194.399,
       5411986.493
      ],
      [
       710188.54,
       5411983.766
      ],
      [
       710188.54,
       5411983.766
      ],
      [
       710175.67,
       5411983.766
      ],
      [
       710175.67,
       5411983.766
      ],
      [
       710136.959,
       5411996.547
      ],
      [
       710136.959,
       5411996.547
      ],
      [
       710120.35,
       5412009.393
      ],
      [
       710120.35,
       5412009.393
      ],
      [
       710098.725,
       5412043.324
      ],
      [
       710098.725,
       5412043.324
      ],
      [
       710098.725,
       5412061.015
      ],
      [
       710098.725,
       5412061.015
      ],
      [
       710096.666,
       5412091.869
      ],
      [
       710096.666,
       5412091.869
      ],
      [
       710100.828,
       5412110.828
      ],
      [
       710100.828,
       5412110.828
      ],
      [
       710110.631,
       5412117.129
      ],
      [
       710110.631,
       5412117.129
      ],
      [
       710123.766,
       5412149.24
      ],
      [
       710123.766,
       5412149.24
      ],
      [
       710130.917,
       5412166.357
      ],
      [
       710130.917,
       5412166.357
      ],
      [
       710128.791,
       5412197.145
      ],
      [
       710128.791,
       5412197.145
      ],
      [
       710123.8,
       5412211.378
      ],
      [
       710123.8,
       5412211.378
      ],
      [
       710113.155,
       5412223.6
      ],
      [
       710113.155,
       5412223.6
      ],
      [
       710085.016,
       5412238.46
      ],
      [
       710085.016,
       5412238.46
      ],
      [
       710058.131,
       5412249.839
      ],
      [
       710058.131,
       5412249.839
      ],
      [
       710029.731,
       5412249.839
      ],
      [
       710029.731,
       5412249.839
      ],
      [
       710015.063,
       5412246.317
      ],
      [
       710015.063,
       5412246.317
      ],
      [
       710001.602,
       5412242.563
      ],
      [
       710001.602,
       5412242.563
      ],
      [
       709992.038,
       5412242.563
      ],
      [
       709992.038,
       5412242.563
      ],
      [
       709972.274,
       5412238.602
      ],
      [
       709972.274,
       5412238.602
      ],
      [
       709963.642,
       5412235.763
      ],
      [
       709963.642,
       5412235.763
      ],
      [
       709954.263,
       5412232.256
      ],
      [
       709954.263,
       5412232.256
      ],
      [
       709954.263,
       5412228.555
      ],
      [
       709954.263,
       5412228.555
      ],
      [
       709945.864,
       5412220.345
      ],
      [
       709945.864,
       5412220.345
      ],
      [
       709925.834,
       5412192.238
      ],
      [
       709925.834,
       5412192.238
      ],
      [
       709917.049,
       5412177.318
      ],
      [
       709917.049,
       5412177.318
      ],
      [
       709899.371,
       5412144.554
      ],
      [
       709899.371,
       5412144.554
      ],
      [
       709894.304,
       5412133.068
      ],
      [
       709894.304,
       5412133.068
      ],
      [
       709891.476,
       5412127.417
      ],
      [
       709891.476,
       5412127.417
      ],
      [
       709886.711,
       5412118.47
      ],
      [
       709886.711,
       5412118.47
      ],
      [
       709886.711,
       5412100.949
      ],
      [
       709886.711,
       5412100.949
      ],
      [
       709884.606,
       5412095.01
      ],
      [
       709884.606,
       5412095.01
      ],
      [
       709863.202,
       5412086.457
      ],
      [
       709863.202,
       5412086.457
      ],
      [
       709839.068,
       5412054.838
      ],
      [
       709839.068,
       5412054.838
      ],
      [
       709818.246,
       5412032.921
      ],
      [
       709818.246,
       5412032.921
      ],
      [
       709804.194,
       5412017.181
      ],
      [
       709804.194,
       5412017.181
      ],
      [
       709804.194,
       5411995.525
      ],
      [
       709804.194,
       5411995.525
      ],
      [
       709809.044,
       5411990.109
      ],
      [
       709809.044,
       5411990.109
      ],
      [
       709796.13,
       5411953.844
      ],
      [
       709796.13,
       5411953.844
      ],
      [
       709781.68,
       5411916.41
      ],
      [
       709781.68,
       5411916.41
      ],
      [
       709768.268,
       5411889.657
      ],
      [
       709768.268,
       5411889.657
      ],
      [
       709746.933,
       5411879.076
      ],
      [
       709746.933,
       5411879.076
      ],
      [
       709713.103,
       5411863.011
      ],
      [
       709713.103,
       5411863.011
      ],
      [
       709689.293,
       5411855.413
      ],
      [
       709689.293,
       5411855.413
      ],
      [
       709697.016,
       5411835.95
      ],
      [
       709697.016,
       5411835.95
      ],
      [
       709708.205,
       5411825.464
      ],
      [
       709708.205,
       5411825.464
      ],
      [
       709725.859,
       5411817.9
      ],
      [
       709725.859,
       5411817.9
      ],
      [
       709778.24,
       5411813.926
      ],
      [
       709778.24,
       5411813.926
      ],
      [
       709792.749,
       5411813.926
      ],
      [
       709792.749,
       5411813.926
      ],
      [
       709806.427,
       5411818.644
      ],
      [
       709806.427,
       5411818.644
      ],
      [
       709820.664,
       5411821.874
      ],
      [
       709820.664,
       5411821.874
      ],
      [
       709831.692,
       5411824.626
      ],
      [
       709831.692,
       5411824.626
      ],
      [
       709853.8,
       5411835.254
      ],
      [
       709853.8,
       5411835.254
      ],
      [
       709879.021,
       5411846.877
      ],
      [
       709879.021,
       5411846.877
      ],
      [
       709921.683,
       5411861.149
      ],
      [
       709921.683,
       5411861.149
      ],
      [
       709947.956,
       5411871.321
      ],
      [
       709947.956,
       5411871.321
      ],
      [
       709969.094,
       5411879.918
      ],
      [
       709969.094,
       5411879.918
      ],
      [
       709979.285,
       5411886.018
      ],
      [
       709979.285,
       5411886.018
      ],
      [
       709982.268,
       5411909.386
      ],
      [
       709982.268,
       5411909.386
      ],
      [
       709987.23,
       5411923.127
      ],
      [
       709987.23,
       5411923.127
      ],
      [
       709997.029,
       5411933.252
      ],
      [
       709997.029,
       5411933.252
      ],
      [
       710000.378,
       5411927.932
      ],
      [
       710000.378,
       5411927.932
      ],
      [
       710000.378,
       5411906.721
      ],
      [
       710000.378,
       5411906.721
      ],
      [
       709997.043,
       5411893.105
      ],
      [
       709997.043,
       5411893.105
      ],
      [
       709991.963,
       5411879.148
      ],
      [
       709991.963,
       5411879.148
      ],
      [
       709967.577,
       5411866.46
      ],
      [
       709967.577,
       5411866.46
      ],
      [
       709951.196,
       5411859.767
      ],
      [
       709951.196,
       5411859.767
      ],
      [
       709918.843,
       5411852.05
      ],
      [
       709918.843,
       5411852.05
      ],
      [
       709894.39,
       5411845.245
      ],
      [
       709894.39,
       5411845.245
      ],
      [
       709864.937,
       5411830.281
      ],
      [
       709864.937,
       5411830.281
      ],
      [
       709840.165,
       5411819.174
      ],
      [
       709840.165,
       5411819.174
      ],
      [
       709812.704,
       5411810.998
      ],
      [
       709812.704,
       5411810.998
      ],
      [
       709801.256,
       5411807.446
      ],
      [
       709801.256,
       5411807.446
      ],
      [
       709779.309,
       5411803.47
      ],
      [
       709779.309,
       5411803.47
      ],
      [
       709766.141,
       5411803.47
      ],
      [
       709766.141,
       5411803.47
      ],
      [
       709756.938,
       5411797.701
      ],
      [
       709756.938,
       5411797.701
      ],
      [
       709737.233,
       5411795.777
      ],
      [
       709737.233,
       5411795.777
      ],
      [
       709715.179,
       5411796.678
      ],
      [
       709715.179,
       5411796.678
      ],
      [
       709708.102,
       5411801.853
      ],
      [
       709708.102,
       5411801.853
      ],
      [
       709698.232,
       5411815.712
      ],
      [
       709698.232,
       5411815.712
      ],
      [
       709693.864,
       5411826.476
      ],
      [
       709693.864,
       5411826.476
      ],
      [
       709676.548,
       5411857.926
      ],
      [
       709676.548,
       5411857.926
      ],
      [
       709667.662,
       5411869.467
      ],
      [
       709667.662,
       5411869.467
      ],
      [
       709661.177,
       5411881.703
      ],
      [
       709661.177,
       5411881.703
      ],
      [
       709649.813,
       5411896.984
      ],
      [
       709649.813,
       5411896.984
      ],
      [
       709627.112,
       5411919.867
      ],
      [
       709627.112,
       5411919.867
      ],
      [
       709613.01,
       5411936.78
      ],
      [
       709613.01,
       5411936.78
      ],
      [
       709604.719,
       5411946.976
      ],
      [
       709604.719,
       5411946.976
      ],
      [
       709591.668,
       5411954.519
      ],
      [
       709591.668,
       5411954.519
      ],
      [
       709575.867,
       5411964.644
      ],
      [
       709575.867,
       5411964.644
      ],
      [
       709557.599,
       5411970.471
      ],
      [
       709557.599,
       5411970.471
      ],
      [
       709551.416,
       5411973.227
      ],
      [
       709551.416,
       5411973.227
      ],
      [
       709538.017,
       5411976.433
      ],
      [
       709538.017,
       5411976.433
      ],
      [
       709518.147,
       5411979.685
      ],
      [
       709518.147,
       5411979.685
      ],
      [
       709504.007,
       5411982.0
      ],
      [
       709504.007,
       5411982.0
      ],
      [
       709494.293,
       5411985.036
      ],
      [
       709494.293,
       5411985.036
      ],
      [
       709479.796,
       5411980.644
      ],
      [
       709479.796,
       5411980.644
      ],
      [
       709442.424,
       5411967.64
      ],
      [
       709442.424,
       5411967.64
      ],
      [
       709425.428,
       5411960.306
      ],
      [
       709425.428,
       5411960.306
      ],
      [
       709402.896,
       5411951.236
      ],
      [
       709402.896,
       5411951.236
      ],
      [
       709383.605,
       5411945.231
      ],
      [
       709383.605,
       5411945.231
      ],
      [
       709362.145,
       5411938.256
      ],
      [
       709362.145,
       5411938.256
      ],
      [
       709331.554,
       5411930.112
      ],
      [
       709331.554,
       5411930.112
      ],
      [
       709320.416,
       5411924.963
      ],
      [
       709320.416,
       5411924.963
      ],
      [
       709306.563,
       5411912.137
      ],
      [
       709306.563,
       5411912.137
      ],
      [
       709285.882,
       5411895.621
      ],
      [
       709285.882,
       5411895.621
      ],
      [
       709279.315,
       5411870.273
      ],
      [
       709279.315,
       5411870.273
      ],
      [
       709273.827,
       5411857.411
      ],
      [
       709273.827,
       5411857.411
      ],
      [
       709264.686,
       5411829.656
      ],
      [
       709264.686,
       5411829.656
      ],
      [
       709254.129,
       5411801.645
      ],
      [
       709254.129,
       5411801.645
      ],
      [
       709246.306,
       5411791.246
      ],
      [
       709246.306,
       5411791.246
      ],
      [
       709237.288,
       5411777.869
      ],
      [
       709237.288,
       5411777.869
      ],
      [
       709219.517,
       5411767.134
      ],
      [
       709219.517,
       5411767.134
      ],
      [
       709208.596,
       5411765.289
      ],
      [
       709208.596,
       5411765.289
      ],
      [
       709203.916,
       5411751.481
      ],
      [
       709203.916,
       5411751.481
      ],
      [
       709203.914,
       5411735.917
      ],
      [
       709203.914,
       5411735.917
      ],
      [
       709205.941,
       5411719.078
      ],
      [
       709205.941,
       5411719.078
      ],
      [
       709203.34,
       5411708.778
      ],
      [
       709203.34,
       5411708.778
      ],
      [
       709199.326,
       5411696.285
      ],
      [
       709199.326,
       5411696.285
      ],
      [
       709197.385,
       5411684.187
      ],
      [
       709197.385,
       5411684.187
      ],
      [
       709189.351,
       5411661.061
      ],
      [
       709189.351,
       5411661.061
      ],
      [
       709186.308,
       5411649.659
      ],
      [
       709186.308,
       5411649.659
      ],
      [
       709173.036,
       5411639.588
      ],
      [
       709173.036,
       5411639.588
      ],
      [
       709167.533,
       5411621.083
      ],
      [
       709167.533,
       5411621.083
      ],
      [
       709166.78,
       5411600.739
      ],
      [
       709166.78,
       5411600.739
      ],
      [
       709164.06,
       5411585.635
      ],
      [
       709164.06,
       5411585.635
      ],
      [
       709162.732,
       5411558.525
      ],
      [
       709162.732,
       5411558.525
      ],
      [
       709162.732,
       5411546.604
      ],
      [
       709162.732,
       5411546.604
      ],
      [
       709165.951,
       5411526.496
      ],
      [
       709165.951,
       5411526.496
      ],
      [
       709173.443,
       5411512.031
      ],
      [
       709173.443,
       5411512.031
      ],
      [
       709050.603,
       5411667.948
      ],
      [
       709050.603,
       5411667.948
      ],
      [
       709021.235,
       5411751.023
      ],
      [
       709021.235,
       5411751.023
      ],
      [
       709026.329,
       5411756.013
      ],
      [
       709026.329,
       5411756.013
      ],
      [
       709028.099,
       5411762.178
      ],
      [
       709028.099,
       5411762.178
      ],
      [
       709028.648,
       5411783.346
      ],
      [
       709028.648,
       5411783.346
      ],
      [
       709023.38,
       5411795.308
      ],
      [
       709023.38,
       5411795.308
      ],
      [
       709011.245,
       5411823.291
      ],
      [
       709011.245,
       5411823.291
      ],
      [
       709005.009,
       5411832.768
      ],
      [
       709005.009,
       5411832.768
      ],
      [
       709001.758,
       5411870.862
      ],
      [
       709001.758,
       5411870.862
      ],
      [
       709010.725,
       5411936.383
      ]
     ]
    ]
   }
  },
  {
   "type": "Feature",
   "properties": {
    "capa": "rio",
    "tipo": "HATCH",
    "area_m2": 2304.6,
    "area_ha": 0.23,
    "n_vertices": 138
   },
   "geometry": {
    "type": "Polygon",
    "coordinates": [
     [
      [
       709192.565,
       5411705.54
      ],
      [
       709196.494,
       5411719.167
      ],
      [
       709196.494,
       5411719.167
      ],
      [
       709197.276,
       5411726.138
      ],
      [
       709197.276,
       5411726.138
      ],
      [
       709203.137,
       5411730.575
      ],
      [
       709203.137,
       5411730.575
      ],
      [
       709203.96,
       5411738.14
      ],
      [
       709203.96,
       5411738.14
      ],
      [
       709204.175,
       5411754.092
      ],
      [
       709204.175,
       5411754.092
      ],
      [
       709204.14,
       5411760.273
      ],
      [
       709204.14,
       5411760.273
      ],
      [
       709204.497,
       5411763.377
      ],
      [
       709204.497,
       5411763.377
      ],
      [
       709208.759,
       5411764.038
      ],
      [
       709208.759,
       5411764.038
      ],
      [
       709211.907,
       5411767.376
      ],
      [
       709211.907,
       5411767.376
      ],
      [
       709219.274,
       5411767.377
      ],
      [
       709219.274,
       5411767.377
      ],
      [
       709229.209,
       5411772.894
      ],
      [
       709229.209,
       5411772.894
      ],
      [
       709233.536,
       5411776.085
      ],
      [
       709233.536,
       5411776.085
      ],
      [
       709238.481,
       5411782.878
      ],
      [
       709238.481,
       5411782.878
      ],
      [
       709241.374,
       5411786.48
      ],
      [
       709241.374,
       5411786.48
      ],
      [
       709246.306,
       5411789.832
      ],
      [
       709246.306,
       5411789.832
      ],
      [
       709248.841,
       5411797.348
      ],
      [
       709248.841,
       5411797.348
      ],
      [
       709249.806,
       5411800.949
      ],
      [
       709249.806,
       5411800.949
      ],
      [
       709253.93,
       5411801.193
      ],
      [
       709253.93,
       5411801.193
      ],
      [
       709256.323,
       5411808.873
      ],
      [
       709256.323,
       5411808.873
      ],
      [
       709256.323,
       5411816.273
      ],
      [
       709256.323,
       5411816.273
      ],
      [
       709258.761,
       5411819.373
      ],
      [
       709258.761,
       5411819.373
      ],
      [
       709261.106,
       5411820.059
      ],
      [
       709261.106,
       5411820.059
      ],
      [
       709263.851,
       5411827.885
      ],
      [
       709263.851,
       5411827.885
      ],
      [
       709263.828,
       5411836.585
      ],
      [
       709263.828,
       5411836.585
      ],
      [
       709264.457,
       5411838.58
      ],
      [
       709264.457,
       5411838.58
      ],
      [
       709268.071,
       5411838.705
      ],
      [
       709268.071,
       5411838.705
      ],
      [
       709270.18,
       5411846.454
      ],
      [
       709270.18,
       5411846.454
      ],
      [
       709271.437,
       5411850.091
      ],
      [
       709271.437,
       5411850.091
      ],
      [
       709271.387,
       5411854.402
      ],
      [
       709271.387,
       5411854.402
      ],
      [
       709271.437,
       5411857.134
      ],
      [
       709271.437,
       5411857.134
      ],
      [
       709275.237,
       5411861.271
      ],
      [
       709275.237,
       5411861.271
      ],
      [
       709277.105,
       5411865.027
      ],
      [
       709277.105,
       5411865.027
      ],
      [
       709278.852,
       5411872.757
      ],
      [
       709278.852,
       5411872.757
      ],
      [
       709278.817,
       5411876.676
      ],
      [
       709278.817,
       5411876.676
      ],
      [
       709278.921,
       5411883.475
      ],
      [
       709278.921,
       5411883.475
      ],
      [
       709283.097,
       5411883.688
      ],
      [
       709283.097,
       5411883.688
      ],
      [
       709284.907,
       5411891.154
      ],
      [
       709284.907,
       5411891.154
      ],
      [
       709286.539,
       5411899.228
      ],
      [
       709286.539,
       5411899.228
      ],
      [
       709293.606,
       5411902.417
      ],
      [
       709293.606,
       5411902.417
      ],
      [
       709300.218,
       5411906.63
      ],
      [
       709300.218,
       5411906.63
      ],
      [
       709301.472,
       5411909.933
      ],
      [
       709301.472,
       5411909.933
      ],
      [
       709309.729,
       5411918.058
      ],
      [
       709309.729,
       5411918.058
      ],
      [
       709317.346,
       5411921.004
      ],
      [
       709317.346,
       5411921.004
      ],
      [
       709324.233,
       5411927.873
      ],
      [
       709324.233,
       5411927.873
      ],
      [
       709328.804,
       5411928.708
      ],
      [
       709328.804,
       5411928.708
      ],
      [
       709331.702,
       5411932.115
      ],
      [
       709331.702,
       5411932.115
      ],
      [
       709338.599,
       5411932.525
      ],
      [
       709338.599,
       5411932.525
      ],
      [
       709346.223,
       5411936.192
      ],
      [
       709346.223,
       5411936.192
      ],
      [
       709350.209,
       5411936.16
      ],
      [
       709350.209,
       5411936.16
      ],
      [
       709353.902,
       5411936.1
      ],
      [
       709353.902,
       5411936.1
      ],
      [
       709364.581,
       5411940.362
      ],
      [
       709364.581,
       5411940.362
      ],
      [
       709348.908,
       5411932.261
      ],
      [
       709348.908,
       5411932.261
      ],
      [
       709329.887,
       5411924.457
      ],
      [
       709329.887,
       5411924.457
      ],
      [
       709316.286,
       5411913.26
      ],
      [
       709316.286,
       5411913.26
      ],
      [
       709304.225,
       5411900.037
      ],
      [
       709304.225,
       5411900.037
      ],
      [
       709290.35,
       5411890.882
      ],
      [
       709290.35,
       5411890.882
      ],
      [
       709281.501,
       5411875.18
      ],
      [
       709281.501,
       5411875.18
      ],
      [
       709276.159,
       5411858.14
      ],
      [
       709276.159,
       5411858.14
      ],
      [
       709271.528,
       5411841.387
      ],
      [
       709271.528,
       5411841.387
      ],
      [
       709271.063,
       5411839.834
      ],
      [
       709271.063,
       5411839.834
      ],
      [
       709266.799,
       5411823.089
      ],
      [
       709266.799,
       5411823.089
      ],
      [
       709261.74,
       5411805.427
      ],
      [
       709261.74,
       5411805.427
      ],
      [
       709253.325,
       5411789.565
      ],
      [
       709253.325,
       5411789.565
      ],
      [
       709246.131,
       5411773.161
      ],
      [
       709246.131,
       5411773.161
      ],
      [
       709239.889,
       5411755.861
      ],
      [
       709239.889,
       5411755.861
      ],
      [
       709228.718,
       5411743.854
      ],
      [
       709228.718,
       5411743.854
      ],
      [
       709212.292,
       5411739.126
      ],
      [
       709212.292,
       5411739.126
      ],
      [
       709202.165,
       5411724.696
      ],
      [
       709202.165,
       5411724.696
      ],
      [
       709192.565,
       5411705.54
      ]
     ]
    ]
   }
  },
  {
   "type": "Feature",
   "properties": {
    "capa": "rio",
    "tipo": "HATCH",
    "area_m2": 1829.9,
    "area_ha": 0.183,
    "n_vertices": 58
   },
   "geometry": {
    "type": "Polygon",
    "coordinates": [
     [
      [
       709179.16,
       5411511.084
      ],
      [
       709168.542,
       5411517.14
      ],
      [
       709168.542,
       5411517.14
      ],
      [
       709166.103,
       5411519.789
      ],
      [
       709166.103,
       5411519.789
      ],
      [
       709165.951,
       5411526.496
      ],
      [
       709165.951,
       5411526.496
      ],
      [
       709164.267,
       5411540.118
      ],
      [
       709164.267,
       5411540.118
      ],
      [
       709163.227,
       5411550.575
      ],
      [
       709163.227,
       5411550.575
      ],
      [
       709163.292,
       5411561.226
      ],
      [
       709163.292,
       5411561.226
      ],
      [
       709163.969,
       5411577.83
      ],
      [
       709163.969,
       5411577.83
      ],
      [
       709166.969,
       5411608.353
      ],
      [
       709166.969,
       5411608.353
      ],
      [
       709166.969,
       5411617.388
      ],
      [
       709166.969,
       5411617.388
      ],
      [
       709166.477,
       5411628.802
      ],
      [
       709166.477,
       5411628.802
      ],
      [
       709171.116,
       5411632.639
      ],
      [
       709171.116,
       5411632.639
      ],
      [
       709174.653,
       5411651.21
      ],
      [
       709174.653,
       5411651.21
      ],
      [
       709174.632,
       5411655.423
      ],
      [
       709174.632,
       5411655.423
      ],
      [
       709180.232,
       5411659.322
      ],
      [
       709180.232,
       5411659.322
      ],
      [
       709181.97,
       5411670.762
      ],
      [
       709181.97,
       5411670.762
      ],
      [
       709186.391,
       5411674.163
      ],
      [
       709186.391,
       5411674.163
      ],
      [
       709188.444,
       5411677.701
      ],
      [
       709188.444,
       5411677.701
      ],
      [
       709189.06,
       5411685.134
      ],
      [
       709189.06,
       5411685.134
      ],
      [
       709190.982,
       5411687.885
      ],
      [
       709190.982,
       5411687.885
      ],
      [
       709193.255,
       5411688.851
      ],
      [
       709193.255,
       5411688.851
      ],
      [
       709198.28,
       5411684.607
      ],
      [
       709198.28,
       5411684.607
      ],
      [
       709192.382,
       5411665.942
      ],
      [
       709192.382,
       5411665.942
      ],
      [
       709182.635,
       5411635.294
      ],
      [
       709182.635,
       5411635.294
      ],
      [
       709179.081,
       5411611.272
      ],
      [
       709179.081,
       5411611.272
      ],
      [
       709178.148,
       5411594.86
      ],
      [
       709178.148,
       5411594.86
      ],
      [
       709175.73,
       5411567.007
      ],
      [
       709175.73,
       5411567.007
      ],
      [
       709168.896,
       5411546.428
      ],
      [
       709168.896,
       5411546.428
      ],
      [
       709171.191,
       5411529.317
      ],
      [
       709171.191,
       5411529.317
      ],
      [
       709179.16,
       5411511.084
      ]
     ]
    ]
   }
  },
  {
   "type": "Feature",
   "properties": {
    "capa": "rio",
    "tipo": "HATCH",
    "area_m2": 1769.1,
    "area_ha": 0.177,
    "n_vertices": 146
   },
   "geometry": {
    "type": "Polygon",
    "coordinates": [
     [
      [
       709425.202,
       5411955.822
      ],
      [
       709442.877,
       5411963.518
      ],
      [
       709442.877,
       5411963.518
      ],
      [
       709462.937,
       5411969.543
      ],
      [
       709462.937,
       5411969.543
      ],
      [
       709485.243,
       5411978.41
      ],
      [
       709485.243,
       5411978.41
      ],
      [
       709493.834,
       5411978.893
      ],
      [
       709493.834,
       5411978.893
      ],
      [
       709501.225,
       5411979.42
      ],
      [
       709501.225,
       5411979.42
      ],
      [
       709517.724,
       5411975.236
      ],
      [
       709517.724,
       5411975.236
      ],
      [
       709542.167,
       5411970.064
      ],
      [
       709542.167,
       5411970.064
      ],
      [
       709562.199,
       5411965.016
      ],
      [
       709562.199,
       5411965.016
      ],
      [
       709577.385,
       5411959.259
      ],
      [
       709577.385,
       5411959.259
      ],
      [
       709608.689,
       5411934.188
      ],
      [
       709608.689,
       5411934.188
      ],
      [
       709625.72,
       5411914.302
      ],
      [
       709625.72,
       5411914.302
      ],
      [
       709646.819,
       5411893.839
      ],
      [
       709646.819,
       5411893.839
      ],
      [
       709660.295,
       5411879.179
      ],
      [
       709660.295,
       5411879.179
      ],
      [
       709665.747,
       5411865.663
      ],
      [
       709665.747,
       5411865.663
      ],
      [
       709677.74,
       5411849.333
      ],
      [
       709677.74,
       5411849.333
      ],
      [
       709687.796,
       5411834.286
      ],
      [
       709687.796,
       5411834.286
      ],
      [
       709693.564,
       5411818.758
      ],
      [
       709693.564,
       5411818.758
      ],
      [
       709703.472,
       5411808.404
      ],
      [
       709703.472,
       5411808.404
      ],
      [
       709695.279,
       5411819.701
      ],
      [
       709695.279,
       5411819.701
      ],
      [
       709694.496,
       5411824.658
      ],
      [
       709694.496,
       5411824.658
      ],
      [
       709694.768,
       5411827.869
      ],
      [
       709694.768,
       5411827.869
      ],
      [
       709694.668,
       5411831.316
      ],
      [
       709694.668,
       5411831.316
      ],
      [
       709690.934,
       5411835.305
      ],
      [
       709690.934,
       5411835.305
      ],
      [
       709687.474,
       5411838.687
      ],
      [
       709687.474,
       5411838.687
      ],
      [
       709683.66,
       5411846.096
      ],
      [
       709683.66,
       5411846.096
      ],
      [
       709680.504,
       5411850.404
      ],
      [
       709680.504,
       5411850.404
      ],
      [
       709679.16,
       5411854.091
      ],
      [
       709679.16,
       5411854.091
      ],
      [
       709674.044,
       5411861.336
      ],
      [
       709674.044,
       5411861.336
      ],
      [
       709672.301,
       5411865.042
      ],
      [
       709672.301,
       5411865.042
      ],
      [
       709668.985,
       5411868.637
      ],
      [
       709668.985,
       5411868.637
      ],
      [
       709665.094,
       5411875.957
      ],
      [
       709665.094,
       5411875.957
      ],
      [
       709664.394,
       5411879.951
      ],
      [
       709664.394,
       5411879.951
      ],
      [
       709659.797,
       5411883.745
      ],
      [
       709659.797,
       5411883.745
      ],
      [
       709656.678,
       5411887.116
      ],
      [
       709656.678,
       5411887.116
      ],
      [
       709651.383,
       5411894.808
      ],
      [
       709651.383,
       5411894.808
      ],
      [
       709649.665,
       5411899.453
      ],
      [
       709649.665,
       5411899.453
      ],
      [
       709636.624,
       5411909.754
      ],
      [
       709636.624,
       5411909.754
      ],
      [
       709630.252,
       5411917.479
      ],
      [
       709630.252,
       5411917.479
      ],
      [
       709627.358,
       5411921.162
      ],
      [
       709627.358,
       5411921.162
      ],
      [
       709622.761,
       5411924.843
      ],
      [
       709622.761,
       5411924.843
      ],
      [
       709613.202,
       5411936.384
      ],
      [
       709613.202,
       5411936.384
      ],
      [
       709612.304,
       5411939.973
      ],
      [
       709612.304,
       5411939.973
      ],
      [
       709608.412,
       5411943.843
      ],
      [
       709608.412,
       5411943.843
      ],
      [
       709603.867,
       5411948.271
      ],
      [
       709603.867,
       5411948.271
      ],
      [
       709597.384,
       5411951.017
      ],
      [
       709597.384,
       5411951.017
      ],
      [
       709590.633,
       5411955.053
      ],
      [
       709590.633,
       5411955.053
      ],
      [
       709584.87,
       5411958.906
      ],
      [
       709584.87,
       5411958.906
      ],
      [
       709582.477,
       5411962.67
      ],
      [
       709582.477,
       5411962.67
      ],
      [
       709582.002,
       5411965.757
      ],
      [
       709582.002,
       5411965.757
      ],
      [
       709570.791,
       5411966.093
      ],
      [
       709570.791,
       5411966.093
      ],
      [
       709567.315,
       5411969.509
      ],
      [
       709567.315,
       5411969.509
      ],
      [
       709559.748,
       5411970.069
      ],
      [
       709559.748,
       5411970.069
      ],
      [
       709552.119,
       5411973.91
      ],
      [
       709552.119,
       5411973.91
      ],
      [
       709544.712,
       5411977.504
      ],
      [
       709544.712,
       5411977.504
      ],
      [
       709533.842,
       5411977.386
      ],
      [
       709533.842,
       5411977.386
      ],
      [
       709531.459,
       5411977.227
      ],
      [
       709531.459,
       5411977.227
      ],
      [
       709522.098,
       5411981.062
      ],
      [
       709522.098,
       5411981.062
      ],
      [
       709511.56,
       5411981.291
      ],
      [
       709511.56,
       5411981.291
      ],
      [
       709508.534,
       5411981.217
      ],
      [
       709508.534,
       5411981.217
      ],
      [
       709499.823,
       5411985.008
      ],
      [
       709499.823,
       5411985.008
      ],
      [
       709492.756,
       5411985.008
      ],
      [
       709492.756,
       5411985.008
      ],
      [
       709488.907,
       5411985.113
      ],
      [
       709488.907,
       5411985.113
      ],
      [
       709480.964,
       5411981.198
      ],
      [
       709480.964,
       5411981.198
      ],
      [
       709462.168,
       5411974.355
      ],
      [
       709462.168,
       5411974.355
      ],
      [
       709458.717,
       5411973.648
      ],
      [
       709458.717,
       5411973.648
      ],
      [
       709451.417,
       5411973.648
      ],
      [
       709451.417,
       5411973.648
      ],
      [
       709447.624,
       5411969.583
      ],
      [
       709447.624,
       5411969.583
      ],
      [
       709443.932,
       5411969.974
      ],
      [
       709443.932,
       5411969.974
      ],
      [
       709436.322,
       5411966.62
      ],
      [
       709436.322,
       5411966.62
      ],
      [
       709428.601,
       5411962.372
      ],
      [
       709428.601,
       5411962.372
      ],
      [
       709421.114,
       5411958.603
      ],
      [
       709421.114,
       5411958.603
      ],
      [
       709409.629,
       5411953.253
      ],
      [
       709409.629,
       5411953.253
      ],
      [
       709425.202,
       5411955.822
      ]
     ]
    ]
   }
  },
  {
   "type": "Feature",
   "properties": {
    "capa": "rio",
    "tipo": "LWPOLYLINE",
    "area_m2": 363.1,
    "area_ha": 0.036,
    "n_vertices": 5
   },
   "geometry": {
    "type": "Polygon",
    "coordinates": [
     [
      [
       710306.885,
       5412670.429
      ],
      [
       710321.532,
       5412664.631
      ],
      [
       710330.945,
       5412686.076
      ],
      [
       710316.814,
       5412691.748
      ],
      [
       710306.885,
       5412670.429
      ]
     ]
    ]
   }
  },
  {
   "type": "Feature",
   "properties": {
    "capa": "rio",
    "tipo": "LWPOLYLINE",
    "area_m2": 205.8,
    "area_ha": 0.021,
    "n_vertices": 5
   },
   "geometry": {
    "type": "Polygon",
    "coordinates": [
     [
      [
       709342.666,
       5412565.576
      ],
      [
       709340.011,
       5412581.578
      ],
      [
       709327.584,
       5412579.671
      ],
      [
       709330.107,
       5412563.547
      ],
      [
       709342.666,
       5412565.576
      ]
     ]
    ]
   }
  }
 ]
}